NORAD_CAT_ID,OBJECT_NAME,OBJECT_TYPE,EPOCH,MEAN_MOTION,ECCENTRICITY,INCLINATION,RA_OF_ASC_NODE,ARG_OF_PERICENTER,MEAN_ANOMALY,BSTAR,MEAN_MOTION_DOT,MEAN_MOTION_DDOT,TLE_LINE0,TLE_LINE1,TLE_LINE2,SEMIMAJOR_AXIS,PERIOD,APOGEE,PERIGEE,DECAYED
52558.0,STARLINK-3954,PAYLOAD,2024-08-13 03:29:38,15.08815269,0.0001909,53.2156,173.8595,94.1033,266.0178,-0.00087504,-0.00014178,0.0,0 STARLINK-3954,1 52558U 22051AB  24226.14558225 -.00014178  00000-0 -87504-3 0  9993,2 52558  53.2156 173.8595 0001909  94.1033 266.0178 15.08815269125065,6917.956,95.439,541.142,538.5,0.0
52558.0,STARLINK-3954,PAYLOAD,2024-08-13 13:01:58,15.08785928,0.0001439,53.2156,172.0783,87.7827,272.333,9.6444e-05,1.245e-05,0.0,0 STARLINK-3954,1 52558U 22051AB  24226.54303891  .00001245  00000-0  96444-4 0  9997,2 52558  53.2156 172.0783 0001439  87.7827 272.3330 15.08785928125127,6918.046,95.441,540.906,538.915,0.0
52558.0,STARLINK-3954,PAYLOAD,2024-08-13 20:58:55,15.08793693,0.0001457,53.2159,170.5907,85.807,274.3089,0.0014479,0.00022801,0.0,0 STARLINK-3954,1 52558U 22051AB  24226.87425051  .00022801  00000-0  14479-2 0  9993,2 52558  53.2159 170.5907 0001457  85.8070 274.3089 15.08793693125109,6918.022,95.44,540.895,538.879,0.0
52558.0,STARLINK-3954,PAYLOAD,2024-08-14 03:20:27,15.08858335,0.0001309,53.2152,169.4013,91.4094,268.7048,0.0027461,0.00043709,0.0,0 STARLINK-3954,1 52558U 22051AB  24227.13921002  .00043709  00000-0  27461-2 0  9995,2 52558  53.2152 169.4013 0001309  91.4094 268.7048 15.08858335125211,6917.824,95.436,540.595,538.784,0.0
52558.0,STARLINK-3954,PAYLOAD,2024-08-14 12:52:46,15.08862219,0.0001288,53.2151,167.6167,82.545,277.5688,0.001117,0.00017545,0.0,0 STARLINK-3954,1 52558U 22051AB  24227.53664533  .00017545  00000-0  11170-2 0  9991,2 52558  53.2151 167.6167 0001288  82.5450 277.5688 15.08862219125273,6917.812,95.436,540.568,538.786,0.0
52558.0,STARLINK-3954,PAYLOAD,2024-08-15 01:35:50,15.08863633,0.000133,53.2149,165.2384,94.9029,265.2115,0.00048316,7.415e-05,0.0,0 STARLINK-3954,1 52558U 22051AB  24228.06655803  .00007415  00000-0  48316-3 0  9998,2 52558  53.2149 165.2384 0001330  94.9029 265.2115 15.08863633125351,6917.808,95.436,540.593,538.753,0.0
52558.0,STARLINK-3954,PAYLOAD,2024-08-15 12:43:31,15.08866915,0.0001314,53.2147,163.1562,82.7595,277.3547,0.00034257,5.172e-05,0.0,0 STARLINK-3954,1 52558U 22051AB  24228.53023042  .00005172  00000-0  34257-3 0  9991,2 52558  53.2147 163.1562 0001314  82.7595 277.3547 15.08866915125358,6917.798,95.436,540.572,538.754,0.0
52558.0,STARLINK-3954,PAYLOAD,2024-08-16 01:26:37,15.08848228,0.0001366,53.2143,160.7778,79.1134,281.0012,-8.8779e-05,-1.701e-05,0.0,0 STARLINK-3954,1 52558U 22051AB  24229.06015116 -.00001701  00000-0 -88779-4 0  9998,2 52558  53.2143 160.7778 0001366  79.1134 281.0012 15.08848228125505,6917.855,95.437,540.665,538.775,0.0
52558.0,STARLINK-3954,PAYLOAD,2024-08-16 18:55:51,15.08845701,0.0001361,53.2137,157.508,78.0782,282.0363,0.00020312,2.947e-05,0.0,0 STARLINK-3954,1 52558U 22051AB  24229.78879161  .00002947  00000-0  20312-3 0  9994,2 52558  53.2137 157.5080 0001361  78.0782 282.0363 15.08845701125547,6917.863,95.437,540.669,538.786,0.0
52558.0,STARLINK-3954,PAYLOAD,2024-08-17 04:28:10,15.08854997,0.0001494,53.2146,155.7231,87.9136,272.2027,0.00041632,6.347e-05,0.0,0 STARLINK-3954,1 52558U 22051AB  24230.18622817  .00006347  00000-0  41632-3 0  9990,2 52558  53.2146 155.7231 0001494  87.9136 272.2027 15.08854997125673,6917.835,95.437,540.733,538.666,0.0
52558.0,STARLINK-3954,PAYLOAD,2024-08-18 04:18:57,15.08845443,0.0001604,53.2154,151.261,111.3685,248.7478,0.00038725,5.881e-05,0.0,0 STARLINK-3954,1 52558U 22051AB  24231.17983487  .00005881  00000-0  38725-3 0  9994,2 52558  53.2154 151.2610 0001604 111.3685 248.7478 15.08845443125829,6917.864,95.437,540.838,538.619,0.0
52558.0,STARLINK-3954,PAYLOAD,2024-08-19 00:58:58,15.08852027,0.000138,53.2152,147.3939,92.1665,267.9485,0.00058392,9.02e-05,0.0,0 STARLINK-3954,1 52558U 22051AB  24232.04095375  .00009020  00000-0  58392-3 0  9992,2 52558  53.2152 147.3939 0001380  92.1665 267.9485 15.08852027125885,6917.844,95.437,540.663,538.754,0.0
52558.0,STARLINK-3954,PAYLOAD,2024-08-19 18:28:13,15.08833951,0.0001585,53.2158,144.1228,102.3165,257.8005,9.2043e-05,1.177e-05,0.0,0 STARLINK-3954,1 52558U 22051AB  24232.76959850  .00001177  00000-0  92043-4 0  9995,2 52558  53.2158 144.1228 0001585 102.3165 257.8005 15.08833951126065,6917.899,95.438,540.86,538.667,0.0
52558.0,STARLINK-3954,PAYLOAD,2024-08-20 04:00:31,15.08845972,0.0001386,53.2155,142.3413,94.2596,265.8554,0.00035306,5.336e-05,0.0,0 STARLINK-3954,1 52558U 22051AB  24233.16703688  .00005336  00000-0  35306-3 0  9995,2 52558  53.2155 142.3413 0001386  94.2596 265.8554 15.08845972126125,6917.862,95.437,540.686,538.768,0.0
52558.0,STARLINK-3954,PAYLOAD,2024-08-21 03:51:18,15.08858405,0.0001377,53.2156,137.8794,77.8288,282.2858,0.00049914,7.669e-05,0.0,0 STARLINK-3954,1 52558U 22051AB  24234.16063336  .00007669  00000-0  49914-3 0  9996,2 52558  53.2156 137.8794 0001377  77.8288 282.2858 15.08858405126206,6917.824,95.436,540.642,538.737,0.0
52558.0,STARLINK-3954,PAYLOAD,2024-08-21 22:55:56,15.08839434,0.0001355,53.215,134.3054,98.3538,261.7607,1.2847e-05,-8.3e-07,0.0,0 STARLINK-3954,1 52558U 22051AB  24234.95551683 -.00000083  00000-0  12847-4 0  9990,2 52558  53.2150 134.3054 0001355  98.3538 261.7607 15.08839434126398,6917.882,95.438,540.684,538.81,0.0
